{"type": "FeatureCollection", "features": [ {"type": "Feature", "properties": {"norad_id": 30071, "name": "FENGYUN 1C DEB", "group": "fengyun-1c-debris", "lat": 52.857572130095136, "lon": 69.67480097716395, "alt_km": 704.2921992879319, "timestamp": "2025-12-08T03:50:07.270788+00:00", "meta": {"OBJECT_NAME": "FENGYUN 1C DEB", "OBJECT_ID": "1999-025PY", "EPOCH": "2025-12-07T06:12:32.454144", "MEAN_MOTION": 14.51970969, "ECCENTRICITY": 0.0039785, "INCLINATION": 98.6592, "RA_OF_ASC_NODE": 80.3527, "ARG_OF_PERICENTER": 126.3213, "MEAN_ANOMALY": 260.4776, "EPHEMERIS_TYPE": 0, "CLASSIFICATION_TYPE": "U", "NORAD_CAT_ID": 30071, "ELEMENT_SET_NO": 999, "REV_AT_EPOCH": 98147, "BSTAR": 0.0041020674, "MEAN_MOTION_DOT": 0.00016722, "MEAN_MOTION_DDOT": 0}, "tle": {"line1": "1 30071U 99025PY  25341.25870896  .00016722  00000+0  41021-2 0  9993", "line2": "2 30071  98.6592  80.3527 0039785 126.3213 260.4776 14.51970969981479"}}, "geometry": {"type": "Point", "coordinates": [69.67480097716395, 52.857572130095136]}}, {"type": "Feature", "properties": {"norad_id": 30072, "name": "FENGYUN 1C DEB", "group": "fengyun-1c-debris", "lat": -70.66020078505174, "lon": -76.92545792224267, "alt_km": 737.8447080235901, "timestamp": "2025-12-08T03:50:07.270798+00:00", "meta": {"OBJECT_NAME": "FENGYUN 1C DEB", "OBJECT_ID": "1999-025PZ", "EPOCH": "2025-12-07T03:16:23.383200", "MEAN_MOTION": 14.37615214, "ECCENTRICITY": 0.00592569, "INCLINATION": 99.0774, "RA_OF_ASC_NODE": 129.0924, "ARG_OF_PERICENTER": 288.5407, "MEAN_ANOMALY": 70.9346, "EPHEMERIS_TYPE": 0, "CLASSIFICATION_TYPE": "U", "NORAD_CAT_ID": 30072, "ELEMENT_SET_NO": 999, "REV_AT_EPOCH": 97090, "BSTAR": 0.0051167478, "MEAN_MOTION_DOT": 0.00015658, "MEAN_MOTION_DDOT": 0}, "tle": {"line1": "1 30072U 99025PZ  25341.13638175  .00015658  00000+0  51167-2 0  9992", "line2": "2 30072  99.0774 129.0924 0059256 288.5407  70.9346 14.37615214970906"}}, "geometry": {"type": "Point", "coordinates": [-76.92545792224267, -70.66020078505174]}}, {"type": "Feature", "properties": {"norad_id": 30073, "name": "FENGYUN 1C DEB", "group": "fengyun-1c-debris", "lat": 61.90563738839598, "lon": 153.1116203553292, "alt_km": 862.8327438875585, "timestamp": "2025-12-08T03:50:07.270809+00:00", "meta": {"OBJECT_NAME": "FENGYUN 1C DEB", "OBJECT_ID": "1999-025QA", "EPOCH": "2025-12-07T03:53:00.255264", "MEAN_MOTION": 14.18610309, "ECCENTRICITY": 0.00540243, "INCLINATION": 99.4111, "RA_OF_ASC_NODE": 313.9527, "ARG_OF_PERICENTER": 296.5421, "MEAN_ANOMALY": 126.0461, "EPHEMERIS_TYPE": 0, "CLASSIFICATION_TYPE": "U", "NORAD_CAT_ID": 30073, "ELEMENT_SET_NO": 999, "REV_AT_EPOCH": 96846, "BSTAR": 0.0026946187, "MEAN_MOTION_DOT": 5.618e-05, "MEAN_MOTION_DDOT": 0}, "tle": {"line1": "1 30073U 99025QA  25341.16180851  .00005618  00000+0  26946-2 0  9991", "line2": "2 30073  99.4111 313.9527 0054024 296.5421 126.0461 14.18610309968460"}}, "geometry": {"type": "Point", "coordinates": [153.1116203553292, 61.90563738839598]}}, {"type": "Feature", "properties": {"norad_id": 30074, "name": "FENGYUN 1C DEB", "group": "fengyun-1c-debris", "lat": -32.027208134311316, "lon": 54.08037500488764, "alt_km": 923.2133623581612, "timestamp": "2025-12-08T03:50:07.270819+00:00", "meta": {"OBJECT_NAME": "FENGYUN 1C DEB", "OBJECT_ID": "1999-025QB", "EPOCH": "2025-12-05T23:18:03.892032", "MEAN_MOTION": 14.12797864, "ECCENTRICITY": 0.00976106, "INCLINATION": 99.1292, "RA_OF_ASC_NODE": 46.0768, "ARG_OF_PERICENTER": 170.5804, "MEAN_ANOMALY": 189.7227, "EPHEMERIS_TYPE": 0, "CLASSIFICATION_TYPE": "U", "NORAD_CAT_ID": 30074, "ELEMENT_SET_NO": 999, "REV_AT_EPOCH": 96566, "BSTAR": 0.0027772932, "MEAN_MOTION_DOT": 5.356e-05, "MEAN_MOTION_DDOT": 0}, "tle": {"line1": "1 30074U 99025QB  25339.97087838  .00005356  00000+0  27773-2 0  9997", "line2": "2 30074  99.1292  46.0768 0097610 170.5804 189.7227 14.12797864965664"}}, "geometry": {"type": "Point", "coordinates": [54.08037500488764, -32.027208134311316]}}, {"type": "Feature", "properties": {"norad_id": 30075, "name": "FENGYUN 1C DEB", "group": "fengyun-1c-debris", "lat": 34.99592336153194, "lon": 25.793360712888862, "alt_km": 976.7177169711222, "timestamp": "2025-12-08T03:50:07.270828+00:00", "meta": {"OBJECT_NAME": "FENGYUN 1C DEB", "OBJECT_ID": "1999-025QC", "EPOCH": "2025-12-07T01:56:25.478016", "MEAN_MOTION": 13.92530269, "ECCENTRICITY": 0.00908537, "INCLINATION": 99.3625, "RA_OF_ASC_NODE": 31.3359, "ARG_OF_PERICENTER": 192.3098, "MEAN_ANOMALY": 197.7667, "EPHEMERIS_TYPE": 0, "CLASSIFICATION_TYPE": "U", "NORAD_CAT_ID": 30075, "ELEMENT_SET_NO": 999, "REV_AT_EPOCH": 95986, "BSTAR": 0.00033339113, "MEAN_MOTION_DOT": 3.99e-06, "MEAN_MOTION_DDOT": 0}, "tle": {"line1": "1 30075U 99025QC  25341.08085044  .00000399  00000+0  33339-3 0  9998", "line2": "2 30075  99.3625  31.3359 0090853 192.3098 197.7667 13.92530269959862"}}, "geometry": {"type": "Point", "coordinates": [25.793360712888862, 34.99592336153194]}}, {"type": "Feature", "properties": {"norad_id": 30076, "name": "FENGYUN 1C DEB", "group": "fengyun-1c-debris", "lat": -2.531118520478857, "lon": -30.566953113815572, "alt_km": 1018.8668622389441, "timestamp": "2025-12-08T03:50:07.270838+00:00", "meta": {"OBJECT_NAME": "FENGYUN 1C DEB", "OBJECT_ID": "1999-025QD", "EPOCH": "2025-12-07T05:15:22.002624", "MEAN_MOTION": 13.76285794, "ECCENTRICITY": 0.01756005, "INCLINATION": 99.2374, "RA_OF_ASC_NODE": 328.1079, "ARG_OF_PERICENTER": 108.3808, "MEAN_ANOMALY": 272.2434, "EPHEMERIS_TYPE": 0, "CLASSIFICATION_TYPE": "U", "NORAD_CAT_ID": 30076, "ELEMENT_SET_NO": 999, "REV_AT_EPOCH": 94818, "BSTAR": 0.00042025452, "MEAN_MOTION_DOT": 4.17e-06, "MEAN_MOTION_DDOT": 0}, "tle": {"line1": "1 30076U 99025QD  25341.21900466  .00000417  00000+0  42025-3 0  9991", "line2": "2 30076  99.2374 328.1079 0175600 108.3808 272.2434 13.76285794948185"}}, "geometry": {"type": "Point", "coordinates": [-30.566953113815572, -2.531118520478857]}}, {"type": "Feature", "properties": {"norad_id": 30077, "name": "FENGYUN 1C DEB", "group": "fengyun-1c-debris", "lat": 42.94708301875755, "lon": -173.79085071185952, "alt_km": 877.3608379143925, "timestamp": "2025-12-08T03:50:07.270848+00:00", "meta": {"OBJECT_NAME": "FENGYUN 1C DEB", "OBJECT_ID": "1999-025QE", "EPOCH": "2025-12-07T06:46:57.821952", "MEAN_MOTION": 14.07077507, "ECCENTRICITY": 0.00204216, "INCLINATION": 98.7583, "RA_OF_ASC_NODE": 357.1096, "ARG_OF_PERICENTER": 280.3618, "MEAN_ANOMALY": 95.1931, "EPHEMERIS_TYPE": 0, "CLASSIFICATION_TYPE": "U", "NORAD_CAT_ID": 30077, "ELEMENT_SET_NO": 999, "REV_AT_EPOCH": 97036, "BSTAR": 8.1641266e-05, "MEAN_MOTION_DOT": 9.4e-07, "MEAN_MOTION_DDOT": 0}, "tle": {"line1": "1 30077U 99025QE  25341.28261368  .00000094  00000+0  81641-4 0  9999", "line2": "2 30077  98.7583 357.1096 0020421 280.3618  95.1931 14.07077507970368"}}, "geometry": {"type": "Point", "coordinates": [-173.79085071185952, 42.94708301875755]}}, {"type": "Feature", "properties": {"norad_id": 30078, "name": "FENGYUN 1C DEB", "group": "fengyun-1c-debris", "lat": 57.013244610710196, "lon": -109.12753501711899, "alt_km": 846.8092537744014, "timestamp": "2025-12-08T03:50:07.270858+00:00", "meta": {"OBJECT_NAME": "FENGYUN 1C DEB", "OBJECT_ID": "1999-025QF", "EPOCH": "2025-12-07T03:47:30.355008", "MEAN_MOTION": 14.23087123, "ECCENTRICITY": 0.00525306, "INCLINATION": 98.8325, "RA_OF_ASC_NODE": 56.0076, "ARG_OF_PERICENTER": 296.7715, "MEAN_ANOMALY": 95.6207, "EPHEMERIS_TYPE": 0, "CLASSIFICATION_TYPE": "U", "NORAD_CAT_ID": 30078, "ELEMENT_SET_NO": 999, "REV_AT_EPOCH": 97034, "BSTAR": 0.0020888225, "MEAN_MOTION_DOT": 4.737e-05, "MEAN_MOTION_DDOT": 0}, "tle": {"line1": "1 30078U 99025QF  25341.15799022  .00004737  00000+0  20888-2 0  9991", "line2": "2 30078  98.8325  56.0076 0052530 296.7715  95.6207 14.23087123970344"}}, "geometry": {"type": "Point", "coordinates": [-109.12753501711899, 57.013244610710196]}}, {"type": "Feature", "properties": {"norad_id": 30079, "name": "FENGYUN 1C DEB", "group": "fengyun-1c-debris", "lat": -44.242597267506376, "lon": -151.16843768192234, "alt_km": 894.0641608630913, "timestamp": "2025-12-08T03:50:07.270868+00:00", "meta": {"OBJECT_NAME": "FENGYUN 1C DEB", "OBJECT_ID": "1999-025QG", "EPOCH": "2025-12-07T02:53:40.958880", "MEAN_MOTION": 14.00789099, "ECCENTRICITY": 0.00846763, "INCLINATION": 99.0364, "RA_OF_ASC_NODE": 36.7197, "ARG_OF_PERICENTER": 314.8417, "MEAN_ANOMALY": 73.3705, "EPHEMERIS_TYPE": 0, "CLASSIFICATION_TYPE": "U", "NORAD_CAT_ID": 30079, "ELEMENT_SET_NO": 999, "REV_AT_EPOCH": 96459, "BSTAR": 0.00034162402, "MEAN_MOTION_DOT": 4.81e-06, "MEAN_MOTION_DDOT": 0}, "tle": {"line1": "1 30079U 99025QG  25341.12061295  .00000481  00000+0  34162-3 0  9996", "line2": "2 30079  99.0364  36.7197 0084676 314.8417  73.3705 14.00789099964599"}}, "geometry": {"type": "Point", "coordinates": [-151.16843768192234, -44.242597267506376]}}, {"type": "Feature", "properties": {"norad_id": 30080, "name": "FENGYUN 1C DEB", "group": "fengyun-1c-debris", "lat": 51.70408217068443, "lon": 154.00391626483213, "alt_km": 793.7904479822928, "timestamp": "2025-12-08T03:50:07.270878+00:00", "meta": {"OBJECT_NAME": "FENGYUN 1C DEB", "OBJECT_ID": "1999-025QH", "EPOCH": "2025-12-07T05:10:12.686304", "MEAN_MOTION": 14.10812116, "ECCENTRICITY": 0.01339252, "INCLINATION": 98.6977, "RA_OF_ASC_NODE": 321.9115, "ARG_OF_PERICENTER": 76.1697, "MEAN_ANOMALY": 296.2101, "EPHEMERIS_TYPE": 0, "CLASSIFICATION_TYPE": "U", "NORAD_CAT_ID": 30080, "ELEMENT_SET_NO": 999, "REV_AT_EPOCH": 97160, "BSTAR": 0.00048506037, "MEAN_MOTION_DOT": 9.03e-06, "MEAN_MOTION_DDOT": 0}, "tle": {"line1": "1 30080U 99025QH  25341.21542461  .00000903  00000+0  48506-3 0  9993", "line2": "2 30080  98.6977 321.9115 0133925  76.1697 296.2101 14.10812116971609"}}, "geometry": {"type": "Point", "coordinates": [154.00391626483213, 51.70408217068443]}}]}